BATSU-CS1 (IRAZU)       
1 43468U 98067NR  19360.62183256  .00080989  00000-0  32965-3 0  9999
2 43468  51.6347  69.2118 0002824 350.1493   9.9455 15.85467764193043
CUBERRT                 
1 43546U 98067NU  19360.68623251  .00008816  00000-0  81519-4 0  9995
2 43546  51.6374  89.3324 0003856 138.0365 222.0928 15.68439572 82934
TEMPEST-D               
1 43547U 98067NV  19360.69581752  .00003949  00000-0  54080-4 0  9991
2 43547  51.6381 107.4426 0005742 120.2062 239.9500 15.60046534 82376
RAINCUBE                
1 43548U 98067NW  19360.63387079  .00015230  00000-0  14816-3 0  9990
2 43548  51.6360  97.2143 0004401 138.6777 221.4552 15.66496762 82958
HALOSAT                 
1 43549U 98067NX  19360.71473205  .00015165  00000-0  14876-3 0  9990
2 43549  51.6375  97.0399 0004323 140.5754 219.5557 15.66291700 82527
ENDUROSAT ONE           
1 43551U 98067NZ  19359.84079630  .00018604  00000-0  16019-3 0  9991
2 43551  51.6360  96.4276 0004161 150.5280 209.5952 15.69343064 82865
EQUISAT                 
1 43552U 98067PA  19359.71895666  .00014365  00000-0  13911-3 0  9991
2 43552  51.6378 100.9281 0004938 144.9334 215.1988 15.66666013 82750
AEROCUBE 12A            
1 43556U 18046C   19360.18213531  .00000958  00000-0  45790-4 0  9996
2 43556  51.6410 222.5623 0008702  36.5475 323.6097 15.29244344 80704
AEROCUBE 12B            
1 43557U 18046D   19360.15007811  .00000675  00000-0  36145-4 0  9996
2 43557  51.6418 223.0913 0008789  35.5289 324.6274 15.29051358 80640
UITMSAT-1               
1 43589U 98067PD  19360.69409429  .00018056  00000-0  16740-3 0  9992
2 43589  51.6349  96.0802 0004135 158.8924 201.2244 15.67547499 78641
MAYA-1                  
1 43590U 98067PE  19360.55985390  .00016928  00000-0  15727-3 0  9995
2 43590  51.6354  96.6913 0004251 158.6816 201.4358 15.67549747 78551
BHUTAN-1                
1 43591U 98067PF  19359.84181520  .00017339  00000-0  16064-3 0  9991
2 43591  51.6361 100.1886 0004432 156.8794 203.2402 15.67597250 78446
SIRIUSSAT-1             
1 43595U 98067PG  19360.77615098  .00015880  00000-0  15516-3 0  9991
2 43595  51.6353  98.1414 0002588 114.7064 245.4202 15.66351834 77739
SIRIUSSAT-2             
1 43596U 98067PH  19360.12454178  .00015952  00000-0  15688-3 0  9991
2 43596  51.6361 102.0970 0003035 112.5402 247.5915 15.66184568 77621
TANUSHA-3               
1 43597U 98067PJ  19360.09826528  .00025383  00000-0  21305-3 0  9992
2 43597  51.6341  97.3095 0002076 133.6866 226.4303 15.69749317 77681
SURFSAT                 
1 43614U 18070B   19360.31435928  .00002167  00000-0  57396-4 0  9998
2 43614  93.0379  82.5288 0013059 294.5035  65.4857 15.38374371 71702
CP7 (DAVE)              
1 43615U 18070C   19359.94141558  .00002053  00000-0  54595-4 0  9991
2 43615  93.0383  82.3717 0013226 295.6104  64.3782 15.38264573 71648
ELFIN-B                 
1 43616U 18070D   19360.43811531  .00003233  00000-0  83110-4 0  9999
2 43616  93.0346  82.4863 0013776 296.2338  63.7500 15.39248668 71747
ELFIN-A                 
1 43617U 18070E   19360.16325404  .00003262  00000-0  83573-4 0  9994
2 43617  93.0402  82.7385 0013014 293.6674  66.3214 15.39361497 71705
CUBEBEL-1 (BSUSAT-1)    
1 43666U 18083E   19360.83194123  .00000799  00000-0  42734-4 0  9994
2 43666  97.5057  23.8839 0013532 241.8952 291.4079 15.17913603 64275
DEBRISSAT-2             
1 43680U 98067PR  19360.76559143  .00036504  00000-0  26377-3 0  9996
2 43680  51.6340  91.3028 0001273 172.0033 188.0986 15.73125867 86553
CICERO 10               
1 43690U 18088A   19360.63698518  .00000705  00000-0  30889-4 0  9996
2 43690  85.0380 192.8032 0013402 221.6210 138.4012 15.19943295 62338
IRVINE01                
1 43693U 18088D   19360.77881303  .00002065  00000-0  88140-4 0  9994
2 43693  85.0348 191.8848 0017052 204.4380 155.6055 15.22114720 62426
PROXIMA I               
1 43694U 18088E   19360.62972920  .00000888  00000-0  37309-4 0  9997
2 43694  85.0322 191.7759 0018551 196.4110 163.6534 15.21676979 62402
PROXIMA II              
1 43696U 18088G   19360.62830671  .00000877  00000-0  36820-4 0  9990
2 43696  85.0323 191.7788 0018592 196.3562 163.7082 15.21680845 62408
FACSAT-1                
1 43721U 18096C   19360.68609367  .00000902  00000-0  36993-4 0  9990
2 43721  97.4411  70.0778 0018242  21.5719 338.6284 15.26754963 59877
CENTAURI-2              
1 43722U 18096D   19360.76302988  .00001488  00000-0  58520-4 0  9999
2 43722  97.4416  70.2894 0018282  21.5947 338.6059 15.27124322 59883
INNOSAT-2               
1 43738U 18096V   19360.74157560  .00001899  00000-0  68606-4 0  9990
2 43738  97.4426  71.5563 0024551  29.3157 330.9455 15.29477272 59975
SIRION PATHFINDER-2     
1 43759U 18099B   19360.71927958 -.00000187  00000-0 -11727-4 0  9992
2 43759  97.7266  70.1646 0015275  47.4459 312.8048 14.95207314 57963
CORVUS-BC 4             
1 43767U 18099K   19360.72962280  .00000128  00000-0  17086-4 0  9996
2 43767  97.7250  69.7714 0012853  51.9741 308.2637 14.94647318 57951
MOVE-II                 
1 43780U 18099Y   19360.74097229  .00000716  00000-0  70231-4 0  9999
2 43780  97.7265  70.0872 0014655  59.1004 301.1656 14.95232531 57957
SPACEBEE-7              
1 43816U 18099BL  19360.44818293 -.00000107  00000-0 -44501-5 0  9996
2 43816  97.7281  70.0800 0014293  44.9615 315.2760 14.95551930 57481
SPACEBEE-5              
1 43817U 18099BM  19360.19381967  .00000667  00000-0  64640-4 0  9996
2 43817  97.7313  70.0410 0013777  46.7346 313.5022 14.95968375 57456
SPACEBEE-6              
1 43818U 18099BN  19360.43051698  .00000560  00000-0  55463-4 0  9994
2 43818  97.7294  70.1295 0014305  45.6585 314.5806 14.95687283 57635
SHIELDS 1               
1 43850U 18104B   19359.56462185  .00000041  00000-0  00000+0 0  9992
2 43850  85.0305 290.9446 0015626   2.1564 357.9744 15.21231162 56885
STF-1                   
1 43852U 18104D   19359.55424697  .00000041  00000-0  00000+0 0  9999
2 43852  85.0333 291.3582 0015079  17.8693 342.3119 15.20925021 56867
ZACUBE-2                
1 43907U 18111AH  19360.77482744  .00000511  00000-0  23561-4 0  9995
2 43907  97.2790 260.6177 0022755  40.4764 319.8162 15.24390546 55553
LUME 1                  
1 43908U 18111AJ  19359.88794138  .00000908  00000-0  39355-4 0  9997
2 43908  97.2790 259.8301 0022702  43.3198 316.9819 15.24682654 55425
AOBA VELOX-IV           
1 43940U 19003J   19360.74995199  .00001559  00000-0  65882-4 0  9998
2 43940  97.2543  52.8077 0025816 116.0822  24.4989 15.24401292 52185
CATSAT-2                
1 44029U 98067PV  19359.84832246  .00009710  00000-0  12314-3 0  9994
2 44029  51.6386 117.5645 0004713 144.5832 215.5475 15.60164083 51224
DELPHINI                
1 44030U 98067PW  19360.58337132  .00012029  00000-0  14837-3 0  9992
2 44030  51.6364 113.4273 0004307 143.3371 216.7917 15.60630900 51318
UNITE                   
1 44031U 98067PX  19360.61274240  .00007145  00000-0  99175-4 0  9999
2 44031  51.6378 115.8989 0003444 136.6589 223.4675 15.58227791 51280
TECHEDSAT 8             
1 44032U 98067PY  19360.53804238  .00047689  00000-0  36128-3 0  9992
2 44032  51.6351 103.3433 0001324 186.3389 173.7592 15.71885441 51421
CATSAT-1                
1 44033U 98067PZ  19360.61674701  .00010889  00000-0  13720-3 0  9997
2 44033  51.6392 113.6997 0004532 144.9170 215.2123 15.60185275 51257
RAAVANA-1               
1 44329U 98067QE  19359.71949683  .00007189  00000-0  11359-3 0  9993
2 44329  51.6396 127.9540 0006900  73.2100 286.9648 15.54641551 29797
UGUISU                  
1 44330U 98067QF  19360.62465380  .00007848  00000-0  12351-3 0  9999
2 44330  51.6397 123.4977 0006887  74.7408 285.4344 15.54604251 29913
NEPALISAT-1             
1 44331U 98067QG  19359.77955140  .00007468  00000-0  11757-3 0  9999
2 44331  51.6395 127.6054 0006948  74.5405 285.6353 15.54675861 29790
SPOOQY-1                
1 44332U 98067QH  19360.61247494  .00007606  00000-0  11963-3 0  9994
2 44332  51.6397 123.4155 0005832  80.1451 280.0198 15.54675156 29887
SPACEBEE-9              
1 44370U 19037F   19359.44955130  .00004864  00000-0  12372-3 0  9996
2 44370  45.0163  12.3460 0014706 242.2441 117.6951 15.40897751 27581
SPACEBEE-8              
1 44371U 19037G   19359.73849621  .00011897  00000-0  27231-3 0  9990
2 44371  45.0156   9.4393 0012684 252.3622 107.5831 15.42845367 27631
IOD-1 GEMS              
1 44385U 98067QK  19359.98771728  .00010960  00000-0  16572-3 0  9990
2 44385  51.6406 126.7676 0003027  44.5988 315.5247 15.55247266 27293
MOVE-IIB                
1 44398U 19038N   19360.64800764  .00001103  00000-0  67682-4 0  9991
2 44398  97.5139 319.3973 0025839   9.8298 350.3433 15.11936278 26318
SONATE                  
1 44400U 19038Q   19360.25521576  .00006770  00000-0  39702-3 0  9999
2 44400  97.5130 319.0144 0026722   6.0315 354.1286 15.11787003 26252
LUCKY-7                 
1 44406U 19038W   19360.56348921  .00000621  00000-0  39727-4 0  9997
2 44406  97.5157 319.3799 0025076   8.3764 351.7880 15.11999887 26292
BEESAT 9                
1 44412U 19038AC  19360.16992098  .00000859  00000-0  53504-4 0  9992
2 44412  97.5152 318.9783 0023408  15.7630 344.4323 15.12005108 25939
JAISAT-1                
1 44419U 19038F   19359.84886281  .00000774  00000-0  48006-4 0  9995
2 44419  97.5153 318.7952 0022290  16.6734 343.5224 15.12489551 26205
SWIATOWID               
1 44426U 98067QL  19360.78186998  .00012136  00000-0  18168-3 0  9995
2 44426  51.6425 122.8164 0003726  41.2483  75.2818 15.55402618 27433
KRAKSAT                 
1 44427U 98067QM  19359.75513253  .00005587  00000-0  93574-4 0  9996
2 44427  51.6409 128.9579 0003781  32.8697 327.2528 15.53520128 27306
VCC A                   
1 44428U 98067QN  19360.61414048  .00007365  00000-0  11827-3 0  9992
2 44428  51.6411 124.1979 0003180  56.7575 303.3720 15.54157345 27447
